CAS-2T & KS-1Q          
1 41847U 16066G   20336.40064182  .00000249  00000-0  46798-4 0  9995
2 41847  98.6323  28.4078 0366586  91.3216 272.9986 14.38120029213416
NAYIF-1 (EO-88)         
1 42017U 17008BX  20336.41747582  .00004897  00000-0  18678-3 0  9993
2 42017  97.3425  41.4222 0007794  91.9363 268.2769 15.27112510211020
ZHUHAI-1 02 (CAS-4B)    
1 42759U 17034B   20336.52254770  .00000973  00000-0  72230-4 0  9995
2 42759  43.0178 189.0454 0010671 356.5612  83.5270 15.09980040191222
ZHUHAI-1 01 (CAS-4A)    
1 42761U 17034D   20336.52439770  .00000925  00000-0  69187-4 0  9997
2 42761  43.0173 188.2228 0011031 358.2145  82.7093 15.10059498191221
MAX VALIER SAT          
1 42778U 17036P   20336.38267077  .00002948  00000-0  12808-3 0  9994
2 42778  97.2841  25.2299 0013013 148.3867 211.8155 15.22991191191133
RADFXSAT (FOX-1B)       
1 43017U 17073E   20336.56019567  .00001406  00000-0  11456-3 0  9997
2 43017  97.7164 242.2887 0255034 225.5621 132.4474 14.79185910163860
FOX-1D (AO-92)          
1 43137U 18004AC  20336.48911680  .00003580  00000-0  14826-3 0  9992
2 43137  97.4304  46.3976 0009013 178.2026 181.9245 15.24541000160493
DIWATA-2B               
1 43678U 18084H   20336.43904791  .00000593  00000-0  64646-4 0  9997
2 43678  97.9023  95.0262 0009733 353.7846   6.3254 14.91681072113916
ES'HAIL 2               
1 43700U 18090A   20336.39771606  .00000165  00000-0  00000+0 0  9996
2 43700   0.0131 296.8202 0001968 337.3814 325.5267  1.00272995  7623
FOX-1CLIFF (AO-95)      
1 43770U 18099N   20336.43025221  .00000773  00000-0  75542-4 0  9995
2 43770  97.6903  44.7570 0014598   5.7079 354.4306 14.95119246108869
ITASAT 1                
1 43786U 18099AE  20336.45705349  .00000572  00000-0  56863-4 0  9992
2 43786  97.6915  45.3223 0014987 358.1992   1.9172 14.95437444108893
JY1SAT (JO-97)          
1 43803U 18099AX  20336.18310182  .00000537  00000-0  53445-4 0  9993
2 43803  97.6876  44.8358 0014998 359.2724   0.8472 14.95640496108859
PSAT2 (NO-104)          
1 44354U 19036R   20336.42909831  .00029276  00000-0  41728-3 0  9990
2 44354  28.5332   1.4366 0348664 298.4903  58.0994 15.07447680 78991
BRICSAT2 (NO-103)       
1 44355U 19036S   20336.40408373  .00059722  00000-0  77282-3 0  9997
2 44355  28.5310 341.5991 0312547 330.7390  27.6022 15.16723079 79209
JAISAT-1                
1 44419U 19038F   20336.49067397  .00002956  00000-0  16978-3 0  9998
2 44419  97.5620 296.3612 0019660 275.7651  84.1338 15.13151282 77850
DUCHIFAT-3              
1 44854U 19089C   20336.00804506  .00000975  00000-0  84893-4 0  9996
2 44854  36.9658 193.9560 0009599 326.3999  33.6150 14.99224246 53302
RS-44 & BREEZE-KM R/B   
1 44909U 19096E   20336.51268110  .00000037  00000-0  10403-3 0  9990
2 44909  82.5230 244.2992 0216974 195.6629 163.7690 12.79707661 43552
ORBITAL FACTORY 2 (OF-2)
1 45113U 19071C   20336.55555301  .00006362  00000-0  19988-3 0  9990
2 45113  51.6433 275.9279 0011960 301.6268  58.3547 15.34231446 46771
HUSKYSAT-1              
1 45119U 19071J   20336.12222774  .00007129  00000-0  22167-3 0  9999
2 45119  51.6424 277.5346 0011251 296.0172  63.9651 15.34371880 46702
BY70-2                  
1 45857U 20042B   20336.52420640  .00002250  00000-0  33006-3 0  9998
2 45857  98.0020  48.2423 0012592 130.0222 230.2127 14.76496895 22338
SALSAT                  
1 46495U 20068K   20336.58184780  .00000455  00000-0  38041-4 0  9993
2 46495  97.6738 269.4876 0018097  24.9190 335.2905 15.03259694  9608
BY70-3                  
1 46839U 20079N   20336.47951690  .00006090  00000-0  19743-3 0  9995
2 46839  97.2640  48.2154 0007388 183.2294 303.7221 15.32325415  3876
